{"type": "FeatureCollection", "features": [ {"type": "Feature", "properties": {"norad_id": 37834, "name": "INTELSAT 18 (IS-18)", "group": "intelsat", "lat": 0.029234823005219405, "lon": 34.619104726822066, "alt_km": 35790.35130949481, "timestamp": "2025-12-13T08:49:15.361300+00:00", "meta": {"OBJECT_NAME": "INTELSAT 18 (IS-18)", "OBJECT_ID": "2011-056A", "EPOCH": "2025-12-12T19:28:21.720864", "MEAN_MOTION": 1.00271863, "ECCENTRICITY": 0.00018648, "INCLINATION": 0.0134, "RA_OF_ASC_NODE": 307.2412, "ARG_OF_PERICENTER": 324.1242, "MEAN_ANOMALY": 282.4712, "EPHEMERIS_TYPE": 0, "CLASSIFICATION_TYPE": "U", "NORAD_CAT_ID": 37834, "ELEMENT_SET_NO": 999, "REV_AT_EPOCH": 5194, "BSTAR": 0, "MEAN_MOTION_DOT": 6.5e-07, "MEAN_MOTION_DDOT": 0}, "tle": {"line1": "1 37834U 11056A   25346.81136251  .00000065  00000+0  00000+0 0  9994", "line2": "2 37834   0.0134 307.2412 0001864 324.1242 282.4712  1.00271863 51944"}}, "geometry": {"type": "Point", "coordinates": [34.619104726822066, 0.029234823005219405]}}, {"type": "Feature", "properties": {"norad_id": 38098, "name": "INTELSAT 22 (IS-22)", "group": "intelsat", "lat": -0.03862530248660084, "lon": -73.29350180552649, "alt_km": 35779.17046421476, "timestamp": "2025-12-13T08:49:15.361312+00:00", "meta": {"OBJECT_NAME": "INTELSAT 22 (IS-22)", "OBJECT_ID": "2012-011A", "EPOCH": "2025-12-12T21:23:38.609376", "MEAN_MOTION": 1.00270424, "ECCENTRICITY": 0.00017355, "INCLINATION": 0.0297, "RA_OF_ASC_NODE": 38.6614, "ARG_OF_PERICENTER": 242.045, "MEAN_ANOMALY": 194.1352, "EPHEMERIS_TYPE": 0, "CLASSIFICATION_TYPE": "U", "NORAD_CAT_ID": 38098, "ELEMENT_SET_NO": 999, "REV_AT_EPOCH": 532, "BSTAR": 0, "MEAN_MOTION_DOT": 0, "MEAN_MOTION_DDOT": 0}, "tle": {"line1": "1 38098U 12011A   25346.89141909  .00000000  00000+0  00000+0 0  9992", "line2": "2 38098   0.0297  38.6614 0001735 242.0450 194.1352  1.00270424  5324"}}, "geometry": {"type": "Point", "coordinates": [-73.29350180552649, -0.03862530248660084]}}, {"type": "Feature", "properties": {"norad_id": 38356, "name": "INTELSAT 19 (IS-19)", "group": "intelsat", "lat": 0.012777262091369647, "lon": 20.656707938106294, "alt_km": 35790.80252337426, "timestamp": "2025-12-13T08:49:15.361324+00:00", "meta": {"OBJECT_NAME": "INTELSAT 19 (IS-19)", "OBJECT_ID": "2012-030A", "EPOCH": "2025-12-12T22:49:40.810656", "MEAN_MOTION": 1.00272493, "ECCENTRICITY": 0.00033957, "INCLINATION": 0.0096, "RA_OF_ASC_NODE": 5.3555, "ARG_OF_PERICENTER": 265.3355, "MEAN_ANOMALY": 319.631, "EPHEMERIS_TYPE": 0, "CLASSIFICATION_TYPE": "U", "NORAD_CAT_ID": 38356, "ELEMENT_SET_NO": 999, "REV_AT_EPOCH": 4858, "BSTAR": 0, "MEAN_MOTION_DOT": -4.3e-07, "MEAN_MOTION_DDOT": 0}, "tle": {"line1": "1 38356U 12030A   25346.95116679 -.00000043  00000+0  00000+0 0  9991", "line2": "2 38356   0.0096   5.3555 0003395 265.3355 319.6310  1.00272493 48580"}}, "geometry": {"type": "Point", "coordinates": [20.656707938106294, 0.012777262091369647]}}, {"type": "Feature", "properties": {"norad_id": 38740, "name": "INTELSAT 20 (IS-20)", "group": "intelsat", "lat": -0.00038182090783646713, "lon": -76.85107706296134, "alt_km": 35788.65124266503, "timestamp": "2025-12-13T08:49:15.361336+00:00", "meta": {"OBJECT_NAME": "INTELSAT 20 (IS-20)", "OBJECT_ID": "2012-043A", "EPOCH": "2025-12-12T22:22:02.693568", "MEAN_MOTION": 1.00270542, "ECCENTRICITY": 0.00031999, "INCLINATION": 0.0042, "RA_OF_ASC_NODE": 77.2715, "ARG_OF_PERICENTER": 106.1488, "MEAN_ANOMALY": 302.4698, "EPHEMERIS_TYPE": 0, "CLASSIFICATION_TYPE": "U", "NORAD_CAT_ID": 38740, "ELEMENT_SET_NO": 999, "REV_AT_EPOCH": 4888, "BSTAR": 0, "MEAN_MOTION_DOT": -1.2e-07, "MEAN_MOTION_DDOT": 0}, "tle": {"line1": "1 38740U 12043A   25346.93197562 -.00000012  00000+0  00000+0 0  9996", "line2": "2 38740   0.0042  77.2715 0003199 106.1488 302.4698  1.00270542 48880"}}, "geometry": {"type": "Point", "coordinates": [-76.85107706296134, -0.00038182090783646713]}}, {"type": "Feature", "properties": {"norad_id": 38749, "name": "INTELSAT 21 (IS-21)", "group": "intelsat", "lat": 0.020574417856623103, "lon": 156.59146721637637, "alt_km": 35787.62986813249, "timestamp": "2025-12-13T08:49:15.361347+00:00", "meta": {"OBJECT_NAME": "INTELSAT 21 (IS-21)", "OBJECT_ID": "2012-045A", "EPOCH": "2025-12-12T23:28:37.081344", "MEAN_MOTION": 1.002723, "ECCENTRICITY": 0.00018002, "INCLINATION": 0.027, "RA_OF_ASC_NODE": 69.998, "ARG_OF_PERICENTER": 189.1103, "MEAN_ANOMALY": 116.9669, "EPHEMERIS_TYPE": 0, "CLASSIFICATION_TYPE": "U", "NORAD_CAT_ID": 38749, "ELEMENT_SET_NO": 999, "REV_AT_EPOCH": 4865, "BSTAR": 0, "MEAN_MOTION_DOT": -2.72e-06, "MEAN_MOTION_DDOT": 0}, "tle": {"line1": "1 38749U 12045A   25346.97820696 -.00000272  00000+0  00000+0 0  9990", "line2": "2 38749   0.0270  69.9980 0001800 189.1103 116.9669  1.00272300 48651"}}, "geometry": {"type": "Point", "coordinates": [156.59146721637637, 0.020574417856623103]}}, {"type": "Feature", "properties": {"norad_id": 38867, "name": "INTELSAT 23 (IS-23)", "group": "intelsat", "lat": 0.03478877424451375, "lon": 161.6048235119832, "alt_km": 35783.86582415851, "timestamp": "2025-12-13T08:49:15.361359+00:00", "meta": {"OBJECT_NAME": "INTELSAT 23 (IS-23)", "OBJECT_ID": "2012-057A", "EPOCH": "2025-12-12T20:04:33.254400", "MEAN_MOTION": 1.00272659, "ECCENTRICITY": 0.0001042, "INCLINATION": 0.0448, "RA_OF_ASC_NODE": 97.1317, "ARG_OF_PERICENTER": 126.8115, "MEAN_ANOMALY": 105.9792, "EPHEMERIS_TYPE": 0, "CLASSIFICATION_TYPE": "U", "NORAD_CAT_ID": 38867, "ELEMENT_SET_NO": 999, "REV_AT_EPOCH": 4808, "BSTAR": 0, "MEAN_MOTION_DOT": -2.72e-06, "MEAN_MOTION_DDOT": 0}, "tle": {"line1": "1 38867U 12057A   25346.83649600 -.00000272  00000+0  00000+0 0  9993", "line2": "2 38867   0.0448  97.1317 0001042 126.8115 105.9792  1.00272659 48084"}}, "geometry": {"type": "Point", "coordinates": [161.6048235119832, 0.03478877424451375]}}, {"type": "Feature", "properties": {"norad_id": 39360, "name": "FM-6", "group": "intelsat", "lat": 0.007982740705884646, "lon": 98.43471615809601, "alt_km": 35783.57813123411, "timestamp": "2025-12-13T08:49:15.361371+00:00", "meta": {"OBJECT_NAME": "FM-6", "OBJECT_ID": "2013-058A", "EPOCH": "2025-12-12T21:29:22.738848", "MEAN_MOTION": 1.00273072, "ECCENTRICITY": 0.00028733, "INCLINATION": 0.0115, "RA_OF_ASC_NODE": 76.5029, "ARG_OF_PERICENTER": 101.6907, "MEAN_ANOMALY": 109.8439, "EPHEMERIS_TYPE": 0, "CLASSIFICATION_TYPE": "U", "NORAD_CAT_ID": 39360, "ELEMENT_SET_NO": 999, "REV_AT_EPOCH": 4420, "BSTAR": 0, "MEAN_MOTION_DOT": -5e-08, "MEAN_MOTION_DDOT": 0}, "tle": {"line1": "1 39360U 13058A   25346.89540207 -.00000005  00000+0  00000+0 0  9997", "line2": "2 39360   0.0115  76.5029 0002873 101.6907 109.8439  1.00273072 44209"}}, "geometry": {"type": "Point", "coordinates": [98.43471615809601, 0.007982740705884646]}}, {"type": "Feature", "properties": {"norad_id": 40271, "name": "INTELSAT 30 (IS-30)", "group": "intelsat", "lat": 0.027420644166028307, "lon": 119.55836101636731, "alt_km": 35781.88279910047, "timestamp": "2025-12-13T08:49:15.361383+00:00", "meta": {"OBJECT_NAME": "INTELSAT 30 (IS-30)", "OBJECT_ID": "2014-062A", "EPOCH": "2025-12-12T08:55:38.613216", "MEAN_MOTION": 1.00272537, "ECCENTRICITY": 0.00012624, "INCLINATION": 0.0176, "RA_OF_ASC_NODE": 31.1392, "ARG_OF_PERICENTER": 47.2418, "MEAN_ANOMALY": 41.7881, "EPHEMERIS_TYPE": 0, "CLASSIFICATION_TYPE": "U", "NORAD_CAT_ID": 40271, "ELEMENT_SET_NO": 999, "REV_AT_EPOCH": 491, "BSTAR": 0, "MEAN_MOTION_DOT": -1.41e-06, "MEAN_MOTION_DDOT": 0}, "tle": {"line1": "1 40271U 14062A   25346.37197469 -.00000141  00000+0  00000+0 0  9998", "line2": "2 40271   0.0176  31.1392 0001262  47.2418  41.7881  1.00272537  4916"}}, "geometry": {"type": "Point", "coordinates": [119.55836101636731, 0.027420644166028307]}}, {"type": "Feature", "properties": {"norad_id": 40333, "name": "DIRECTV 14", "group": "intelsat", "lat": 0.020488688574007208, "lon": 115.38198457555484, "alt_km": 35785.68789525405, "timestamp": "2025-12-13T08:49:15.361394+00:00", "meta": {"OBJECT_NAME": "DIRECTV 14", "OBJECT_ID": "2014-078B", "EPOCH": "2025-12-12T23:16:53.204736", "MEAN_MOTION": 1.00270111, "ECCENTRICITY": 3.237e-05, "INCLINATION": 0.0184, "RA_OF_ASC_NODE": 326.2968, "ARG_OF_PERICENTER": 199.0672, "MEAN_ANOMALY": 166.5466, "EPHEMERIS_TYPE": 0, "CLASSIFICATION_TYPE": "U", "NORAD_CAT_ID": 40333, "ELEMENT_SET_NO": 999, "REV_AT_EPOCH": 4017, "BSTAR": 0, "MEAN_MOTION_DOT": -1.13e-06, "MEAN_MOTION_DDOT": 0}, "tle": {"line1": "1 40333U 14078B   25346.97006024 -.00000113  00000+0  00000+0 0  9995", "line2": "2 40333   0.0184 326.2968 0000323 199.0672 166.5466  1.00270111 40175"}}, "geometry": {"type": "Point", "coordinates": [115.38198457555484, 0.020488688574007208]}}, {"type": "Feature", "properties": {"norad_id": 40663, "name": "DIRECTV 15", "group": "intelsat", "lat": 0.029194919608540818, "lon": 111.745145801285, "alt_km": 35786.28863787584, "timestamp": "2025-12-13T08:49:15.361406+00:00", "meta": {"OBJECT_NAME": "DIRECTV 15", "OBJECT_ID": "2015-026A", "EPOCH": "2025-12-12T23:15:53.301024", "MEAN_MOTION": 1.00272237, "ECCENTRICITY": 1.171e-05, "INCLINATION": 0.039, "RA_OF_ASC_NODE": 84.5267, "ARG_OF_PERICENTER": 159.0415, "MEAN_ANOMALY": 84.4503, "EPHEMERIS_TYPE": 0, "CLASSIFICATION_TYPE": "U", "NORAD_CAT_ID": 40663, "ELEMENT_SET_NO": 999, "REV_AT_EPOCH": 3859, "BSTAR": 0, "MEAN_MOTION_DOT": -9e-07, "MEAN_MOTION_DDOT": 0}, "tle": {"line1": "1 40663U 15026A   25346.96936691 -.00000090  00000+0  00000+0 0  9990", "line2": "2 40663   0.0390  84.5267 0000117 159.0415  84.4503  1.00272237 38592"}}, "geometry": {"type": "Point", "coordinates": [111.745145801285, 0.029194919608540818]}}]}